{
  "norad_id": 48556,
  "name": "STARLINK-2151",
  "history": [
    {
      "epoch": "2026-03-28T21:58:29.568000Z",
      "apogee_km": 475.858169110631,
      "perigee_km": 474.4817509407785,
      "latitude_deg": 5.945750423970047e-05,
      "longitude_deg": -102.88386788683071,
      "height_km": 476.13558081967324,
      "semi_major_axis_km": 6853.306960025704,
      "eccentricity": 0.00010042,
      "inclination_deg": 53.1596,
      "raan_deg": 53.0685,
      "arg_perigee_deg": 95.6058,
      "mean_anomaly_deg": 264.5058,
      "mean_motion_rev_day": 15.30215108
    },
    {
      "epoch": "2026-03-29T04:14:42.053568Z",
      "apogee_km": 475.9240912904006,
      "perigee_km": 474.3094647003054,
      "latitude_deg": -9.756928555108727e-06,
      "longitude_deg": 161.59235211226016,
      "height_km": 476.28320524275944,
      "semi_major_axis_km": 6853.253777995353,
      "eccentricity": 0.0001178,
      "inclination_deg": 53.1595,
      "raan_deg": 51.8543,
      "arg_perigee_deg": 109.4017,
      "mean_anomaly_deg": 250.7111,
      "mean_motion_rev_day": 15.3023292
    },
    {
      "epoch": "2026-03-30T03:45:30.319488Z",
      "apogee_km": 476.1668880324023,
      "perigee_km": 474.26165637873055,
      "latitude_deg": -1.870987916218781e-05,
      "longitude_deg": 163.37537672117804,
      "height_km": 476.20781687793334,
      "semi_major_axis_km": 6853.351272205567,
      "eccentricity": 0.000139,
      "inclination_deg": 53.1606,
      "raan_deg": 47.3041,
      "arg_perigee_deg": 95.7572,
      "mean_anomaly_deg": 264.3587,
      "mean_motion_rev_day": 15.30200267
    },
    {
      "epoch": "2026-03-30T21:00:05.476032Z",
      "apogee_km": 476.12017206500514,
      "perigee_km": 474.239896003548,
      "latitude_deg": -3.687356284733326e-05,
      "longitude_deg": -99.31707049520199,
      "height_km": 476.1526702613254,
      "semi_major_axis_km": 6853.317034034276,
      "eccentricity": 0.00013718,
      "inclination_deg": 53.1609,
      "raan_deg": 43.9663,
      "arg_perigee_deg": 94.5506,
      "mean_anomaly_deg": 265.5651,
      "mean_motion_rev_day": 15.30211734
    },
    {
      "epoch": "2026-03-31T20:30:53.136288Z",
      "apogee_km": 476.23315791012647,
      "perigee_km": 474.18537804525477,
      "latitude_deg": 6.689679699371975e-06,
      "longitude_deg": -97.53217550639688,
      "height_km": 476.09653589142084,
      "semi_major_axis_km": 6853.34626797769,
      "eccentricity": 0.0001494,
      "inclination_deg": 53.1606,
      "raan_deg": 39.4154,
      "arg_perigee_deg": 89.409,
      "mean_anomaly_deg": 270.7082,
      "mean_motion_rev_day": 15.30201943
    },
    {
      "epoch": "2026-04-01T20:01:41.900736Z",
      "apogee_km": 476.3425455343113,
      "perigee_km": 474.15357434616635,
      "latitude_deg": 4.151418506467876e-05,
      "longitude_deg": -95.75150053657421,
      "height_km": 476.09052442298406,
      "semi_major_axis_km": 6853.3850599402385,
      "eccentricity": 0.0001597,
      "inclination_deg": 53.1611,
      "raan_deg": 34.8649,
      "arg_perigee_deg": 87.1056,
      "mean_anomaly_deg": 273.0128,
      "mean_motion_rev_day": 15.30188951
    },
    {
      "epoch": "2026-04-02T19:32:30.444000Z",
      "apogee_km": 476.20601494364564,
      "perigee_km": 474.3125586175338,
      "latitude_deg": 3.827757979048005e-06,
      "longitude_deg": -93.97085592523787,
      "height_km": 476.18858238849964,
      "semi_major_axis_km": 6853.396286780589,
      "eccentricity": 0.00013814,
      "inclination_deg": 53.1615,
      "raan_deg": 30.3135,
      "arg_perigee_deg": 91.8897,
      "mean_anomaly_deg": 268.2262,
      "mean_motion_rev_day": 15.30185191
    },
    {
      "epoch": "2026-04-03T19:03:17.373312Z",
      "apogee_km": 476.1140337987954,
      "perigee_km": 474.1608505827717,
      "latitude_deg": 1.2614857553115438e-05,
      "longitude_deg": -92.18153418139902,
      "height_km": 476.0859790139282,
      "semi_major_axis_km": 6853.274442190784,
      "eccentricity": 0.0001425,
      "inclination_deg": 53.1618,
      "raan_deg": 25.764,
      "arg_perigee_deg": 92.9625,
      "mean_anomaly_deg": 267.1539,
      "mean_motion_rev_day": 15.30225999
    },
    {
      "epoch": "2026-04-04T04:27:37.125504Z",
      "apogee_km": 476.0927592163507,
      "perigee_km": 474.38023824648735,
      "latitude_deg": 1.4293488136135484e-05,
      "longitude_deg": 124.52909646294768,
      "height_km": 476.03071879337494,
      "semi_major_axis_km": 6853.373498731418,
      "eccentricity": 0.00012494,
      "inclination_deg": 53.1618,
      "raan_deg": 23.9432,
      "arg_perigee_deg": 83.0179,
      "mean_anomaly_deg": 277.0964,
      "mean_motion_rev_day": 15.30192823
    },
    {
      "epoch": "2026-04-05T11:48:40.797504Z",
      "apogee_km": 476.17255232417574,
      "perigee_km": 474.26677090371413,
      "latitude_deg": 1.9776165745627382e-05,
      "longitude_deg": 6.91025825201899,
      "height_km": 476.06008755016677,
      "semi_major_axis_km": 6853.356661613944,
      "eccentricity": 0.00013904,
      "inclination_deg": 53.161,
      "raan_deg": 17.8772,
      "arg_perigee_deg": 86.535,
      "mean_anomaly_deg": 273.581,
      "mean_motion_rev_day": 15.30198462
    },
    {
      "epoch": "2026-04-05T19:38:57.058944Z",
      "apogee_km": 476.16267046084704,
      "perigee_km": 474.3629676683613,
      "latitude_deg": 1.5156911597756271e-05,
      "longitude_deg": -112.49629085241203,
      "height_km": 476.22572254184996,
      "semi_major_axis_km": 6853.399819064603,
      "eccentricity": 0.0001313,
      "inclination_deg": 53.161,
      "raan_deg": 16.3603,
      "arg_perigee_deg": 94.1286,
      "mean_anomaly_deg": 265.9865,
      "mean_motion_rev_day": 15.30184008
    },
    {
      "epoch": "2026-04-06T00:20:31.904160Z",
      "apogee_km": 477.1543341504639,
      "perigee_km": 464.5743624339739,
      "latitude_deg": 3.351634045566521e-05,
      "longitude_deg": 176.00339888767016,
      "height_km": 469.11987930131687,
      "semi_major_axis_km": 6849.001348292219,
      "eccentricity": 0.00091838,
      "inclination_deg": 53.1615,
      "raan_deg": 15.4479,
      "arg_perigee_deg": 294.9187,
      "mean_anomaly_deg": 65.086,
      "mean_motion_rev_day": 15.31658285
    },
    {
      "epoch": "2026-04-07T10:50:17.053728Z",
      "apogee_km": 475.8920268250713,
      "perigee_km": 474.4918917186915,
      "latitude_deg": -5.538271318992776e-05,
      "longitude_deg": 10.476810441541765,
      "height_km": 476.1148724952379,
      "semi_major_axis_km": 6853.328959271881,
      "eccentricity": 0.00010215,
      "inclination_deg": 53.1581,
      "raan_deg": 8.7762,
      "arg_perigee_deg": 92.0215,
      "mean_anomaly_deg": 268.0902,
      "mean_motion_rev_day": 15.3020774
    },
    {
      "epoch": "2026-04-07T17:06:30.242592Z",
      "apogee_km": 476.52516044068125,
      "perigee_km": 473.9167723986611,
      "latitude_deg": -6.445843744040637e-05,
      "longitude_deg": -85.04806399452174,
      "height_km": 476.24504071263743,
      "semi_major_axis_km": 6853.35796641967,
      "eccentricity": 0.0001903,
      "inclination_deg": 53.1609,
      "raan_deg": 7.5638,
      "arg_perigee_deg": 95.5784,
      "mean_anomaly_deg": 264.5433,
      "mean_motion_rev_day": 15.30198025
    },
    {
      "epoch": "2026-04-08T10:21:05.710176Z",
      "apogee_km": 476.0597648101475,
      "perigee_km": 474.402346279594,
      "latitude_deg": 5.6569850300403764e-05,
      "longitude_deg": 12.258189938442342,
      "height_km": 476.22905114240945,
      "semi_major_axis_km": 6853.36805554487,
      "eccentricity": 0.00012092,
      "inclination_deg": 53.1599,
      "raan_deg": 4.2259,
      "arg_perigee_deg": 96.9202,
      "mean_anomaly_deg": 263.1937,
      "mean_motion_rev_day": 15.30194646
    },
    {
      "epoch": "2026-04-09T00:27:34.126272Z",
      "apogee_km": 476.16365349353237,
      "perigee_km": 474.25801159521507,
      "latitude_deg": -2.1354024731816888e-05,
      "longitude_deg": 157.3319390784281,
      "height_km": 476.4048357237865,
      "semi_major_axis_km": 6853.347832544374,
      "eccentricity": 0.00013903,
      "inclination_deg": 53.1617,
      "raan_deg": 1.4975,
      "arg_perigee_deg": 108.0873,
      "mean_anomaly_deg": 252.0279,
      "mean_motion_rev_day": 15.30201419
    },
    {
      "epoch": "2026-04-09T23:58:22.519200Z",
      "apogee_km": 476.0310349129559,
      "perigee_km": 474.45092008646407,
      "latitude_deg": 2.034468705229001e-05,
      "longitude_deg": 159.11206732509154,
      "height_km": 476.11243949904286,
      "semi_major_axis_km": 6853.37797749971,
      "eccentricity": 0.00011528,
      "inclination_deg": 53.161,
      "raan_deg": 356.9449,
      "arg_perigee_deg": 88.0506,
      "mean_anomaly_deg": 272.0627,
      "mean_motion_rev_day": 15.30191323
    },
    {
      "epoch": "2026-04-10T23:29:09.350880Z",
      "apogee_km": 475.959220484071,
      "perigee_km": 474.38981214683463,
      "latitude_deg": 3.740387452338526e-05,
      "longitude_deg": 160.89920073822765,
      "height_km": 476.1358630328058,
      "semi_major_axis_km": 6853.3115163154525,
      "eccentricity": 0.0001145,
      "inclination_deg": 53.1607,
      "raan_deg": 352.3928,
      "arg_perigee_deg": 94.6066,
      "mean_anomaly_deg": 265.5066,
      "mean_motion_rev_day": 15.30213582
    },
    {
      "epoch": "2026-04-13T01:38:52.286208Z",
      "apogee_km": 476.21080722391434,
      "perigee_km": 474.2704789456038,
      "latitude_deg": 5.0355976240283316e-05,
      "longitude_deg": 116.70263398936072,
      "height_km": 475.9111298593191,
      "semi_major_axis_km": 6853.377643084758,
      "eccentricity": 0.00014156,
      "inclination_deg": 53.1626,
      "raan_deg": 342.6852,
      "arg_perigee_deg": 76.425,
      "mean_anomaly_deg": 283.6909,
      "mean_motion_rev_day": 15.30191435
    }
  ]
}